{
  "type": "FeatureCollection",
  "features": [
    {
      "type": "Feature",
      "properties": {
        "norad_id": 34350,
        "name": "IRIDIUM 33 DEB",
        "group": "iridium-33-debris",
        "lat": 23.998743663285257,
        "lon": 5.5304633712299545,
        "alt_km": 747.9846610811082,
        "timestamp": "2025-12-10T05:46:14.210966+00:00",
        "meta_object_name": "IRIDIUM 33 DEB",
        "meta_object_id": "1997-051ES",
        "meta_epoch": "2025-12-09T20:14:46.180320",
        "meta_mean_motion": 14.45377644,
        "meta_eccentricity": 0.0022559,
        "meta_inclination": 86.3276,
        "meta_ra_of_asc_node": 4.0641,
        "meta_arg_of_pericenter": 144.1954,
        "meta_mean_anomaly": 336.5397,
        "meta_ephemeris_type": 0,
        "meta_classification_type": "U",
        "meta_norad_cat_id": 34350,
        "meta_element_set_no": 999,
        "meta_rev_at_epoch": 88251,
        "meta_bstar": 0.00052891,
        "meta_mean_motion_dot": 1.884e-05,
        "meta_mean_motion_ddot": 0,
        "tle_line1": "1 34350U 97051ES  25343.84359005  .00001884  00000+0  52891-3 0  9996",
        "tle_line2": "2 34350  86.3276   4.0641 0022559 144.1954 336.5397 14.45377644882510"
      },
      "geometry": {
        "type": "Point",
        "coordinates": [
          5.5304633712299545,
          23.998743663285257
        ]
      }
    },
    {
      "type": "Feature",
      "properties": {
        "norad_id": 34366,
        "name": "IRIDIUM 33 DEB",
        "group": "iridium-33-debris",
        "lat": -84.02869719650248,
        "lon": 13.022440250258482,
        "alt_km": 729.5383818458331,
        "timestamp": "2025-12-10T05:46:14.210976+00:00",
        "meta_object_name": "IRIDIUM 33 DEB",
        "meta_object_id": "1997-051FJ",
        "meta_epoch": "2025-12-09T15:59:46.412160",
        "meta_mean_motion": 14.54015219,
        "meta_eccentricity": 0.0022251,
        "meta_inclination": 86.3691,
        "meta_ra_of_asc_node": 50.6497,
        "meta_arg_of_pericenter": 149.3626,
        "meta_mean_anomaly": 2.8862,
        "meta_ephemeris_type": 0,
        "meta_classification_type": "U",
        "meta_norad_cat_id": 34366,
        "meta_element_set_no": 999,
        "meta_rev_at_epoch": 88137,
        "meta_bstar": 0.0017418,
        "meta_mean_motion_dot": 7.389e-05,
        "meta_mean_motion_ddot": 0,
        "tle_line1": "1 34366U 97051FJ  25343.66650940  .00007389  00000+0  17418-2 0  9996",
        "tle_line2": "2 34366  86.3691  50.6497 0022251 149.3626   2.8862 14.54015219881376"
      },
      "geometry": {
        "type": "Point",
        "coordinates": [
          13.022440250258482,
          -84.02869719650248
        ]
      }
    },
    {
      "type": "Feature",
      "properties": {
        "norad_id": 34375,
        "name": "IRIDIUM 33 DEB",
        "group": "iridium-33-debris",
        "lat": 25.844485631590427,
        "lon": 1.9733438209192458,
        "alt_km": 761.1820658122433,
        "timestamp": "2025-12-10T05:46:14.210987+00:00",
        "meta_object_name": "IRIDIUM 33 DEB",
        "meta_object_id": "1997-051FT",
        "meta_epoch": "2025-12-09T12:12:31.902912",
        "meta_mean_motion": 14.17984003,
        "meta_eccentricity": 0.01030688,
        "meta_inclination": 86.4325,
        "meta_ra_of_asc_node": 183.9999,
        "meta_arg_of_pericenter": 136.8871,
        "meta_mean_anomaly": 243.7031,
        "meta_ephemeris_type": 0,
        "meta_classification_type": "U",
        "meta_norad_cat_id": 34375,
        "meta_element_set_no": 999,
        "meta_rev_at_epoch": 86666,
        "meta_bstar": 0.00067002905,
        "meta_mean_motion_dot": 1.464e-05,
        "meta_mean_motion_ddot": 0,
        "tle_line1": "1 34375U 97051FT  25343.50870258  .00001464  00000+0  67003-3 0  9999",
        "tle_line2": "2 34375  86.4325 183.9999 0103068 136.8871 243.7031 14.17984003866661"
      },
      "geometry": {
        "type": "Point",
        "coordinates": [
          1.9733438209192458,
          25.844485631590427
        ]
      }
    },
    {
      "type": "Feature",
      "properties": {
        "norad_id": 34376,
        "name": "IRIDIUM 33 DEB",
        "group": "iridium-33-debris",
        "lat": 54.31104685071498,
        "lon": -177.5073929276407,
        "alt_km": 667.7125047016261,
        "timestamp": "2025-12-10T05:46:14.210998+00:00",
        "meta_object_name": "IRIDIUM 33 DEB",
        "meta_object_id": "1997-051FU",
        "meta_epoch": "2025-12-09T19:20:43.537344",
        "meta_mean_motion": 14.62499755,
        "meta_eccentricity": 0.0026858,
        "meta_inclination": 86.2987,
        "meta_ra_of_asc_node": 7.8584,
        "meta_arg_of_pericenter": 176.5212,
        "meta_mean_anomaly": 183.6192,
        "meta_ephemeris_type": 0,
        "meta_classification_type": "U",
        "meta_norad_cat_id": 34376,
        "meta_element_set_no": 999,
        "meta_rev_at_epoch": 87964,
        "meta_bstar": 0.0022339,
        "meta_mean_motion_dot": 0.0001141,
        "meta_mean_motion_ddot": 0,
        "tle_line1": "1 34376U 97051FU  25343.80605946  .00011410  00000+0  22339-2 0  9997",
        "tle_line2": "2 34376  86.2987   7.8584 0026858 176.5212 183.6192 14.62499755879646"
      },
      "geometry": {
        "type": "Point",
        "coordinates": [
          -177.5073929276407,
          54.31104685071498
        ]
      }
    },
    {
      "type": "Feature",
      "properties": {
        "norad_id": 34486,
        "name": "IRIDIUM 33 DEB",
        "group": "iridium-33-debris",
        "lat": 43.9330972711094,
        "lon": 16.661843491162664,
        "alt_km": 574.6931833776362,
        "timestamp": "2025-12-10T05:46:14.211008+00:00",
        "meta_object_name": "IRIDIUM 33 DEB",
        "meta_object_id": "1997-051GB",
        "meta_epoch": "2025-12-09T20:29:16.279296",
        "meta_mean_motion": 14.95582817,
        "meta_eccentricity": 0.0013426,
        "meta_inclination": 86.3936,
        "meta_ra_of_asc_node": 13.3566,
        "meta_arg_of_pericenter": 121.8736,
        "meta_mean_anomaly": 1.3041,
        "meta_ephemeris_type": 0,
        "meta_classification_type": "U",
        "meta_norad_cat_id": 34486,
        "meta_element_set_no": 999,
        "meta_rev_at_epoch": 88943,
        "meta_bstar": 0.0030189,
        "meta_mean_motion_dot": 0.00033694,
        "meta_mean_motion_ddot": 0,
        "tle_line1": "1 34486U 97051GB  25343.85366064  .00033694  00000+0  30189-2 0  9999",
        "tle_line2": "2 34486  86.3936  13.3566 0013426 121.8736   1.3041 14.95582817889431"
      },
      "geometry": {
        "type": "Point",
        "coordinates": [
          16.661843491162664,
          43.9330972711094
        ]
      }
    },
    {
      "type": "Feature",
      "properties": {
        "norad_id": 34487,
        "name": "IRIDIUM 33 DEB",
        "group": "iridium-33-debris",
        "lat": 8.38361890858053,
        "lon": -167.08648198521132,
        "alt_km": 730.8861601101562,
        "timestamp": "2025-12-10T05:46:14.211018+00:00",
        "meta_object_name": "IRIDIUM 33 DEB",
        "meta_object_id": "1997-051GC",
        "meta_epoch": "2025-12-09T13:02:34.225152",
        "meta_mean_motion": 14.43210481,
        "meta_eccentricity": 0.0032512,
        "meta_inclination": 86.3437,
        "meta_ra_of_asc_node": 13.7534,
        "meta_arg_of_pericenter": 138.4387,
        "meta_mean_anomaly": 13.878,
        "meta_ephemeris_type": 0,
        "meta_classification_type": "U",
        "meta_norad_cat_id": 34487,
        "meta_element_set_no": 999,
        "meta_rev_at_epoch": 88202,
        "meta_bstar": 0.00032204,
        "meta_mean_motion_dot": 1.109e-05,
        "meta_mean_motion_ddot": 0,
        "tle_line1": "1 34487U 97051GC  25343.54345168  .00001109  00000+0  32204-3 0  9995",
        "tle_line2": "2 34487  86.3437  13.7534 0032512 138.4387  13.8780 14.43210481882024"
      },
      "geometry": {
        "type": "Point",
        "coordinates": [
          -167.08648198521132,
          8.38361890858053
        ]
      }
    },
    {
      "type": "Feature",
      "properties": {
        "norad_id": 34488,
        "name": "IRIDIUM 33 DEB",
        "group": "iridium-33-debris",
        "lat": 86.23019798072413,
        "lon": 24.360316227725118,
        "alt_km": 465.1197322346543,
        "timestamp": "2025-12-10T05:46:14.211028+00:00",
        "meta_object_name": "IRIDIUM 33 DEB",
        "meta_object_id": "1997-051GD",
        "meta_epoch": "2025-12-09T15:14:24.291168",
        "meta_mean_motion": 15.28228201,
        "meta_eccentricity": 0.0014113,
        "meta_inclination": 86.3246,
        "meta_ra_of_asc_node": 307.3494,
        "meta_arg_of_pericenter": 56.5071,
        "meta_mean_anomaly": 303.7522,
        "meta_ephemeris_type": 0,
        "meta_classification_type": "U",
        "meta_norad_cat_id": 34488,
        "meta_element_set_no": 999,
        "meta_rev_at_epoch": 89192,
        "meta_bstar": 0.0059279,
        "meta_mean_motion_dot": 0.00166796,
        "meta_mean_motion_ddot": 0,
        "tle_line1": "1 34488U 97051GD  25343.63500337  .00166796  00000+0  59279-2 0  9991",
        "tle_line2": "2 34488  86.3246 307.3494 0014113  56.5071 303.7522 15.28228201891924"
      },
      "geometry": {
        "type": "Point",
        "coordinates": [
          24.360316227725118,
          86.23019798072413
        ]
      }
    }
  ]
}